[{"OBJECT_NAME":"JILIN-1 GAOFEN 03D47","OBJECT_ID":"2022-167L","EPOCH":"2026-03-09T22:56:46.924224","MEAN_MOTION":15.31686941,"ECCENTRICITY":0.00089304,"INCLINATION":97.6835,"RA_OF_ASC_NODE":234.6581,"ARG_OF_PERICENTER":110.4031,"MEAN_ANOMALY":249.8169,"EPHEMERIS_TYPE":0,"CLASSIFICATION_TYPE":"U","NORAD_CAT_ID":54692,"ELEMENT_SET_NO":999,"REV_AT_EPOCH":18014,"BSTAR":0.00047294748,"MEAN_MOTION_DOT":0.00014417,"MEAN_MOTION_DDOT":0},{"OBJECT_NAME":"STARLINK-32191","OBJECT_ID":"2024-133P","EPOCH":"2026-03-09T21:26:57.118560","MEAN_MOTION":15.30182582,"ECCENTRICITY":0.00010783,"INCLINATION":53.1608,"RA_OF_ASC_NODE":295.963,"ARG_OF_PERICENTER":82.7515,"MEAN_ANOMALY":277.3608,"EPHEMERIS_TYPE":0,"CLASSIFICATION_TYPE":"U","NORAD_CAT_ID":60314,"ELEMENT_SET_NO":999,"REV_AT_EPOCH":9167,"BSTAR":1.0516186e-5,"MEAN_MOTION_DOT":-4.8e-7,"MEAN_MOTION_DDOT":0}]
